start=new Date('2022-07-03T00:00:00.000Z').valueOf();
sats=[{"BSTAR":"-0.00130500000000","RCS_SIZE":"LARGE","OBJECT_NAME":"STARLINK-3570","NORAD_CAT_ID":"51882","CENTER_NAME":"EARTH","ELEMENT_SET_NO":"999","ECCENTRICITY":"0.00015720","RA_OF_ASC_NODE":"282.0293","FILE":"3506613","REV_AT_EPOCH":"2008","MEAN_ELEMENT_THEORY":"SGP4","LAUNCH_DATE":"2022-03-03","MEAN_MOTION":"15.08861737","APOAPSIS":"540.766","MEAN_MOTION_DDOT":"0.0000000000000","ARG_OF_PERICENTER":"54.1279","MEAN_ANOMALY":"282.7424","TLE_LINE1":"1 51882U 22022AG  22183.58334491 -.00021009  00000-0 -13050-2 0  9990","PERIAPSIS":"538.591","EPOCH":"2022-07-02T14:00:01.000224","MEAN_MOTION_DOT":"-0.00021009","TLE_LINE2":"2 51882  53.2131 282.0293 0001572  54.1279 282.7424 15.08861737 20085","OBJECT_TYPE":"PAYLOAD","REF_FRAME":"TEME","CLASSIFICATION_TYPE":"U","SEMIMAJOR_AXIS":"6917.814","INCLINATION":"53.2131","DECAY_DATE":null,"TIME_SYSTEM":"UTC","SITE":"AFETR","EPHEMERIS_TYPE":"0","OBJECT_ID":"2022-022AG","PERIOD":"95.436","GP_ID":"207244224","COUNTRY_CODE":"US"},{"RA_OF_ASC_NODE":"282.0318","FILE":"3506647","REV_AT_EPOCH":"130","CENTER_NAME":"EARTH","ELEMENT_SET_NO":"999","ECCENTRICITY":"0.00017280","OBJECT_NAME":"STARLINK-3576","NORAD_CAT_ID":"51883","RCS_SIZE":"LARGE","BSTAR":"-0.00037540000000","TLE_LINE1":"1 51883U 22022AH  22183.58334491 -.00006258  00000-0 -37540-3 0  9991","MEAN_ANOMALY":"22.8874","ARG_OF_PERICENTER":"48.7933","MEAN_MOTION_DDOT":"0.0000000000000","APOAPSIS":"540.931","MEAN_MOTION":"15.08843116","LAUNCH_DATE":"2022-03-03","MEAN_ELEMENT_THEORY":"SGP4","DECAY_DATE":null,"INCLINATION":"53.2177","SEMIMAJOR_AXIS":"6917.871","CLASSIFICATION_TYPE":"U","REF_FRAME":"TEME","OBJECT_TYPE":"PAYLOAD","TLE_LINE2":"2 51883  53.2177 282.0318 0001728  48.7933  22.8874 15.08843116  1300","MEAN_MOTION_DOT":"-0.00006258","EPOCH":"2022-07-02T14:00:01.000224","PERIAPSIS":"538.540","GP_ID":"207269059","COUNTRY_CODE":"US","PERIOD":"95.437","EPHEMERIS_TYPE":"0","OBJECT_ID":"2022-022AH","SITE":"AFETR","TIME_SYSTEM":"UTC"},{"OBJECT_TYPE":"PAYLOAD","TLE_LINE2":"2 51884  53.2138 280.5316 0001619  55.8070 332.6481 15.08862976 20165","MEAN_MOTION_DOT":"-0.00026699","EPOCH":"2022-07-02T22:00:00.999936","PERIAPSIS":"538.555","DECAY_DATE":null,"INCLINATION":"53.2138","SEMIMAJOR_AXIS":"6917.810","CLASSIFICATION_TYPE":"U","REF_FRAME":"TEME","OBJECT_ID":"2022-022AJ","EPHEMERIS_TYPE":"0","SITE":"AFETR","TIME_SYSTEM":"UTC","GP_ID":"207273256","COUNTRY_CODE":"US","PERIOD":"95.436","BSTAR":"-0.00166460000000","RA_OF_ASC_NODE":"280.5316","FILE":"3506757","REV_AT_EPOCH":"2016","ELEMENT_SET_NO":"999","CENTER_NAME":"EARTH","ECCENTRICITY":"0.00016190","OBJECT_NAME":"STARLINK-3577","NORAD_CAT_ID":"51884","RCS_SIZE":"LARGE","APOAPSIS":"540.795","MEAN_MOTION_DDOT":"0.0000000000000","MEAN_MOTION":"15.08862976","LAUNCH_DATE":"2022-03-03","MEAN_ELEMENT_THEORY":"SGP4","TLE_LINE1":"1 51884U 22022AJ  22183.91667824 -.00026699  00000-0 -16646-2 0  9992","MEAN_ANOMALY":"332.6481","ARG_OF_PERICENTER":"55.8070"},{"SITE":"AFETR","TIME_SYSTEM":"UTC","OBJECT_ID":"2022-022AK","EPHEMERIS_TYPE":"0","COUNTRY_CODE":"US","GP_ID":"207272961","PERIOD":"95.436","TLE_LINE2":"2 51885  53.2175 280.5355 0001895  38.5615  69.8810 15.08872246 20075","MEAN_MOTION_DOT":"-0.00023318","EPOCH":"2022-07-02T22:00:00.999936","PERIAPSIS":"538.336","OBJECT_TYPE":"PAYLOAD","SEMIMAJOR_AXIS":"6917.782","CLASSIFICATION_TYPE":"U","REF_FRAME":"TEME","DECAY_DATE":null,"INCLINATION":"53.2175","MEAN_MOTION":"15.08872246","MEAN_ELEMENT_THEORY":"SGP4","LAUNCH_DATE":"2022-03-03","APOAPSIS":"540.958","MEAN_MOTION_DDOT":"0.0000000000000","TLE_LINE1":"1 51885U 22022AK  22183.91667824 -.00023318  00000-0 -14504-2 0  9999","MEAN_ANOMALY":"69.8810","ARG_OF_PERICENTER":"38.5615","BSTAR":"-0.00145040000000","OBJECT_NAME":"STARLINK-3584","NORAD_CAT_ID":"51885","RCS_SIZE":"LARGE","FILE":"3506757","RA_OF_ASC_NODE":"280.5355","REV_AT_EPOCH":"2007","ECCENTRICITY":"0.00018950","ELEMENT_SET_NO":"999","CENTER_NAME":"EARTH"},{"MEAN_MOTION_DDOT":"0.0000000000000","APOAPSIS":"540.968","MEAN_MOTION":"15.08860614","MEAN_ELEMENT_THEORY":"SGP4","LAUNCH_DATE":"2022-03-03","MEAN_ANOMALY":"17.4490","TLE_LINE1":"1 51886U 22022AL  22183.58334491 -.00026919  00000-0 -16786-2 0  9998","ARG_OF_PERICENTER":"39.4417","BSTAR":"-0.00167860000000","FILE":"3506614","REV_AT_EPOCH":"2003","RA_OF_ASC_NODE":"282.0305","ECCENTRICITY":"0.00018590","ELEMENT_SET_NO":"999","CENTER_NAME":"EARTH","OBJECT_NAME":"STARLINK-3565","NORAD_CAT_ID":"51886","RCS_SIZE":"LARGE","EPHEMERIS_TYPE":"0","OBJECT_ID":"2022-022AL","SITE":"AFETR","TIME_SYSTEM":"UTC","COUNTRY_CODE":"US","GP_ID":"207244235","PERIOD":"95.436","OBJECT_TYPE":"PAYLOAD","MEAN_MOTION_DOT":"-0.00026919","EPOCH":"2022-07-02T14:00:01.000224","TLE_LINE2":"2 51886  53.2171 282.0305 0001859  39.4417  17.4490 15.08860614 20039","PERIAPSIS":"538.396","DECAY_DATE":null,"INCLINATION":"53.2171","CLASSIFICATION_TYPE":"U","REF_FRAME":"TEME","SEMIMAJOR_AXIS":"6917.817"},{"PERIOD":"95.436","GP_ID":"207273251","COUNTRY_CODE":"US","OBJECT_ID":"2022-022AM","EPHEMERIS_TYPE":"0","TIME_SYSTEM":"UTC","SITE":"AFETR","INCLINATION":"53.2174","DECAY_DATE":null,"CLASSIFICATION_TYPE":"U","REF_FRAME":"TEME","SEMIMAJOR_AXIS":"6917.823","OBJECT_TYPE":"PAYLOAD","PERIAPSIS":"538.496","MEAN_MOTION_DOT":"-0.00023591","EPOCH":"2022-07-02T22:00:00.999936","TLE_LINE2":"2 51887  53.2174 280.5345 0001724  43.2556  85.2386 15.08858726 20070","ARG_OF_PERICENTER":"43.2556","MEAN_ANOMALY":"85.2386","TLE_LINE1":"1 51887U 22022AM  22183.91667824 -.00023591  00000-0 -14682-2 0  9991","APOAPSIS":"540.881","MEAN_MOTION_DDOT":"0.0000000000000","LAUNCH_DATE":"2022-03-03","MEAN_ELEMENT_THEORY":"SGP4","MEAN_MOTION":"15.08858726","CENTER_NAME":"EARTH","ELEMENT_SET_NO":"999","ECCENTRICITY":"0.00017240","RA_OF_ASC_NODE":"280.5345","FILE":"3506757","REV_AT_EPOCH":"2007","RCS_SIZE":"LARGE","OBJECT_NAME":"STARLINK-3551","NORAD_CAT_ID":"51887","BSTAR":"-0.00146820000000"},{"MEAN_ELEMENT_THEORY":"SGP4","LAUNCH_DATE":"2022-03-03","MEAN_MOTION":"15.08877636","MEAN_MOTION_DDOT":"0.0000000000000","APOAPSIS":"540.772","ARG_OF_PERICENTER":"46.5372","MEAN_ANOMALY":"41.9329","TLE_LINE1":"1 51888U 22022AN  22183.91667824 -.00023503  00000-0 -14619-2 0  9995","BSTAR":"-0.00146190000000","RCS_SIZE":"LARGE","NORAD_CAT_ID":"51888","OBJECT_NAME":"STARLINK-3536","CENTER_NAME":"EARTH","ELEMENT_SET_NO":"999","ECCENTRICITY":"0.00016500","FILE":"3506757","RA_OF_ASC_NODE":"280.5339","REV_AT_EPOCH":"2008","TIME_SYSTEM":"UTC","SITE":"AFETR","EPHEMERIS_TYPE":"0","OBJECT_ID":"2022-022AN","PERIOD":"95.435","COUNTRY_CODE":"US","GP_ID":"207273258","PERIAPSIS":"538.489","EPOCH":"2022-07-02T22:00:00.999936","MEAN_MOTION_DOT":"-0.00023503","TLE_LINE2":"2 51888  53.2172 280.5339 0001650  46.5372  41.9329 15.08877636 20080","OBJECT_TYPE":"PAYLOAD","CLASSIFICATION_TYPE":"U","REF_FRAME":"TEME","SEMIMAJOR_AXIS":"6917.765","INCLINATION":"53.2172","DECAY_DATE":null},{"ECCENTRICITY":"0.00019800","ELEMENT_SET_NO":"999","CENTER_NAME":"EARTH","RA_OF_ASC_NODE":"280.5203","FILE":"3506758","REV_AT_EPOCH":"2007","RCS_SIZE":"LARGE","OBJECT_NAME":"STARLINK-3547","NORAD_CAT_ID":"51889","BSTAR":"-0.00154160000000","ARG_OF_PERICENTER":"39.8632","MEAN_ANOMALY":"148.5988","TLE_LINE1":"1 51889U 22022AP  22183.91667824 -.00024757  00000-0 -15416-2 0  9994","APOAPSIS":"541.034","MEAN_MOTION_DDOT":"0.0000000000000","MEAN_ELEMENT_THEORY":"SGP4","LAUNCH_DATE":"2022-03-03","MEAN_MOTION":"15.08866583","INCLINATION":"53.2183","DECAY_DATE":null,"REF_FRAME":"TEME","CLASSIFICATION_TYPE":"U","SEMIMAJOR_AXIS":"6917.799","OBJECT_TYPE":"PAYLOAD","PERIAPSIS":"538.294","EPOCH":"2022-07-02T22:00:00.999936","MEAN_MOTION_DOT":"-0.00024757","TLE_LINE2":"2 51889  53.2183 280.5203 0001980  39.8632 148.5988 15.08866583 20076","PERIOD":"95.436","GP_ID":"207273270","COUNTRY_CODE":"US","EPHEMERIS_TYPE":"0","OBJECT_ID":"2022-022AP","TIME_SYSTEM":"UTC","SITE":"AFETR"},{"PERIOD":"95.436","COUNTRY_CODE":"US","GP_ID":"207273267","EPHEMERIS_TYPE":"0","OBJECT_ID":"2022-022AQ","TIME_SYSTEM":"UTC","SITE":"AFETR","INCLINATION":"53.2184","DECAY_DATE":null,"REF_FRAME":"TEME","CLASSIFICATION_TYPE":"U","SEMIMAJOR_AXIS":"6917.816","OBJECT_TYPE":"PAYLOAD","PERIAPSIS":"538.303","EPOCH":"2022-07-02T22:00:00.999936","MEAN_MOTION_DOT":"-0.00023752","TLE_LINE2":"2 51890  53.2184 280.5251 0001993  45.3596 103.1117 15.08860959 20079","ARG_OF_PERICENTER":"45.3596","MEAN_ANOMALY":"103.1117","TLE_LINE1":"1 51890U 22022AQ  22183.91667824 -.00023752  00000-0 -14783-2 0  9996","APOAPSIS":"541.060","MEAN_MOTION_DDOT":"0.0000000000000","LAUNCH_DATE":"2022-03-03","MEAN_ELEMENT_THEORY":"SGP4","MEAN_MOTION":"15.08860959","ELEMENT_SET_NO":"999","CENTER_NAME":"EARTH","ECCENTRICITY":"0.00019930","REV_AT_EPOCH":"2007","FILE":"3506758","RA_OF_ASC_NODE":"280.5251","RCS_SIZE":"LARGE","OBJECT_NAME":"STARLINK-3519","NORAD_CAT_ID":"51890","BSTAR":"-0.00147830000000"},{"TLE_LINE1":"1 51891U 22022AR  22183.58334491  .00001801  00000-0  13119-3 0  9993","MEAN_ANOMALY":"148.0833","ARG_OF_PERICENTER":"48.6932","APOAPSIS":"541.107","MEAN_MOTION_DDOT":"0.0000000000000","MEAN_MOTION":"15.08851835","LAUNCH_DATE":"2022-03-03","MEAN_ELEMENT_THEORY":"SGP4","REV_AT_EPOCH":"130","FILE":"3506647","RA_OF_ASC_NODE":"282.0135","ECCENTRICITY":"0.00020210","ELEMENT_SET_NO":"999","CENTER_NAME":"EARTH","NORAD_CAT_ID":"51891","OBJECT_NAME":"STARLINK-3549","RCS_SIZE":"LARGE","BSTAR":"0.00013119000000","GP_ID":"207269060","COUNTRY_CODE":"US","PERIOD":"95.437","EPHEMERIS_TYPE":"0","OBJECT_ID":"2022-022AR","SITE":"AFETR","TIME_SYSTEM":"UTC","DECAY_DATE":null,"INCLINATION":"53.2165","SEMIMAJOR_AXIS":"6917.844","CLASSIFICATION_TYPE":"U","REF_FRAME":"TEME","OBJECT_TYPE":"PAYLOAD","TLE_LINE2":"2 51891  53.2165 282.0135 0002021  48.6932 148.0833 15.08851835  1301","MEAN_MOTION_DOT":"0.00001801","EPOCH":"2022-07-02T14:00:01.000224","PERIAPSIS":"538.311"}];
